STARLINK-37105          
1 68610U 26073J   26106.92857596  .00159495  00000+0  81635-3 0  9993
2 68610  97.2847 304.5516 0000718  61.9058 298.2283 15.80867824  1575
