{
  "norad_id": 68610,
  "name": "STARLINK-37105",
  "history": [
    {
      "epoch": "2026-04-16T22:17:08.962944Z",
      "apogee_km": 328.46717789555987,
      "perigee_km": 327.5033740020608,
      "latitude_deg": 2.3333648664052862e-05,
      "longitude_deg": 125.19500685831925,
      "height_km": 330.93323017515206,
      "semi_major_axis_km": 6706.12227594881,
      "eccentricity": 7.186e-05,
      "inclination_deg": 97.2847,
      "raan_deg": 304.5516,
      "arg_perigee_deg": 61.9058,
      "mean_anomaly_deg": 298.2283,
      "mean_motion_rev_day": 15.80867824
    }
  ]
}